{"type": "FeatureCollection", "features": [ {"type": "Feature", "properties": {"norad_id": 66343, "name": "STARLINK-35467", "group": "last-30-days", "lat": 37.67607934035217, "lon": 167.8149391318327, "alt_km": 438.8792797643937, "timestamp": "2025-12-02T15:49:05.947304+00:00", "meta": {"OBJECT_NAME": "STARLINK-35467", "OBJECT_ID": "2025-253AA", "EPOCH": "2025-12-02T06:00:02.999808", "MEAN_MOTION": 15.40651648, "ECCENTRICITY": 0.00013548, "INCLINATION": 43.0006, "RA_OF_ASC_NODE": 46.1356, "ARG_OF_PERICENTER": 264.414, "MEAN_ANOMALY": 100.3319, "EPHEMERIS_TYPE": 0, "CLASSIFICATION_TYPE": "U", "NORAD_CAT_ID": 66343, "ELEMENT_SET_NO": 999, "REV_AT_EPOCH": 524, "BSTAR": 0.0011062363, "MEAN_MOTION_DOT": 0.00046112, "MEAN_MOTION_DDOT": 0}, "tle": {"line1": "1 66343U 25253AA  25336.25003472  .00046112  00000+0  11062-2 0  9996", "line2": "2 66343  43.0006  46.1356 0001354 264.4140 100.3319 15.40651648  5244"}}, "geometry": {"type": "Point", "coordinates": [167.8149391318327, 37.67607934035217]}}, {"type": "Feature", "properties": {"norad_id": 66344, "name": "STARLINK-35511", "group": "last-30-days", "lat": -16.09984250046098, "lon": -118.39467596370545, "alt_km": 415.58266295257545, "timestamp": "2025-12-02T15:49:05.947315+00:00", "meta": {"OBJECT_NAME": "STARLINK-35511", "OBJECT_ID": "2025-253AB", "EPOCH": "2025-12-01T14:12:36.561312", "MEAN_MOTION": 15.50616705, "ECCENTRICITY": 0.00018213, "INCLINATION": 43.0007, "RA_OF_ASC_NODE": 49.8062, "ARG_OF_PERICENTER": 276.3676, "MEAN_ANOMALY": 83.6977, "EPHEMERIS_TYPE": 0, "CLASSIFICATION_TYPE": "U", "NORAD_CAT_ID": 66344, "ELEMENT_SET_NO": 999, "REV_AT_EPOCH": 520, "BSTAR": 0.0019436811, "MEAN_MOTION_DOT": 0.00115539, "MEAN_MOTION_DDOT": 0}, "tle": {"line1": "1 66344U 25253AB  25335.59208983  .00115539  00000+0  19437-2 0  9991", "line2": "2 66344  43.0007  49.8062 0001821 276.3676  83.6977 15.50616705  5200"}}, "geometry": {"type": "Point", "coordinates": [-118.39467596370545, -16.09984250046098]}}, {"type": "Feature", "properties": {"norad_id": 66345, "name": "STARLINK-35440", "group": "last-30-days", "lat": -13.294366187953406, "lon": -121.7380687731187, "alt_km": 415.5948868178875, "timestamp": "2025-12-02T15:49:05.947325+00:00", "meta": {"OBJECT_NAME": "STARLINK-35440", "OBJECT_ID": "2025-253AC", "EPOCH": "2025-12-02T05:41:10.235328", "MEAN_MOTION": 15.50637616, "ECCENTRICITY": 0.0001323, "INCLINATION": 43.0001, "RA_OF_ASC_NODE": 46.0436, "ARG_OF_PERICENTER": 261.9386, "MEAN_ANOMALY": 98.1324, "EPHEMERIS_TYPE": 0, "CLASSIFICATION_TYPE": "U", "NORAD_CAT_ID": 66345, "ELEMENT_SET_NO": 999, "REV_AT_EPOCH": 530, "BSTAR": 0.0014737235, "MEAN_MOTION_DOT": 0.00087266, "MEAN_MOTION_DDOT": 0}, "tle": {"line1": "1 66345U 25253AC  25336.23692402  .00087266  00000+0  14737-2 0  9990", "line2": "2 66345  43.0001  46.0436 0001323 261.9386  98.1324 15.50637616  5306"}}, "geometry": {"type": "Point", "coordinates": [-121.7380687731187, -13.294366187953406]}}, {"type": "Feature", "properties": {"norad_id": 66346, "name": "STARLINK-35482", "group": "last-30-days", "lat": -14.549601553255421, "lon": -120.25833811329571, "alt_km": 415.5728682737072, "timestamp": "2025-12-02T15:49:05.947336+00:00", "meta": {"OBJECT_NAME": "STARLINK-35482", "OBJECT_ID": "2025-253AD", "EPOCH": "2025-12-02T05:40:40.575936", "MEAN_MOTION": 15.50636314, "ECCENTRICITY": 0.00016069, "INCLINATION": 43, "RA_OF_ASC_NODE": 46.0419, "ARG_OF_PERICENTER": 259.5785, "MEAN_ANOMALY": 100.4894, "EPHEMERIS_TYPE": 0, "CLASSIFICATION_TYPE": "U", "NORAD_CAT_ID": 66346, "ELEMENT_SET_NO": 999, "REV_AT_EPOCH": 530, "BSTAR": 0.0014664975, "MEAN_MOTION_DOT": 0.00086828, "MEAN_MOTION_DDOT": 0}, "tle": {"line1": "1 66346U 25253AD  25336.23658074  .00086828  00000+0  14665-2 0  9991", "line2": "2 66346  43.0000  46.0419 0001606 259.5785 100.4894 15.50636314  5300"}}, "geometry": {"type": "Point", "coordinates": [-120.25833811329571, -14.549601553255421]}}, {"type": "Feature", "properties": {"norad_id": 66347, "name": "STARLINK-35438", "group": "last-30-days", "lat": -17.56859308018711, "lon": -116.58215313010756, "alt_km": 415.6767885671725, "timestamp": "2025-12-02T15:49:05.947346+00:00", "meta": {"OBJECT_NAME": "STARLINK-35438", "OBJECT_ID": "2025-253AE", "EPOCH": "2025-12-01T04:55:34.258368", "MEAN_MOTION": 15.506197, "ECCENTRICITY": 7.85e-05, "INCLINATION": 42.9997, "RA_OF_ASC_NODE": 52.0629, "ARG_OF_PERICENTER": 269.9026, "MEAN_ANOMALY": 90.1745, "EPHEMERIS_TYPE": 0, "CLASSIFICATION_TYPE": "U", "NORAD_CAT_ID": 66347, "ELEMENT_SET_NO": 999, "REV_AT_EPOCH": 514, "BSTAR": 0.0016452, "MEAN_MOTION_DOT": 0.00097525, "MEAN_MOTION_DDOT": 0}, "tle": {"line1": "1 66347U 25253AE  25335.20525762  .00097525  00000+0  16452-2 0  9997", "line2": "2 66347  42.9997  52.0629 0000785 269.9026  90.1745 15.50619700  5146"}}, "geometry": {"type": "Point", "coordinates": [-116.58215313010756, -17.56859308018711]}}, {"type": "Feature", "properties": {"norad_id": 66348, "name": "STARLINK-35849", "group": "last-30-days", "lat": -10.57588567967009, "lon": -42.994147156534936, "alt_km": 370.561912544611, "timestamp": "2025-12-02T15:49:05.947357+00:00", "meta": {"OBJECT_NAME": "STARLINK-35849", "OBJECT_ID": "2025-254A", "EPOCH": "2025-12-02T06:00:02.999808", "MEAN_MOTION": 15.68535932, "ECCENTRICITY": 0.00013208, "INCLINATION": 53.1592, "RA_OF_ASC_NODE": 327.0637, "ARG_OF_PERICENTER": 89.2868, "MEAN_ANOMALY": 107.7014, "EPHEMERIS_TYPE": 0, "CLASSIFICATION_TYPE": "U", "NORAD_CAT_ID": 66348, "ELEMENT_SET_NO": 999, "REV_AT_EPOCH": 523, "BSTAR": -0.019636555, "MEAN_MOTION_DOT": -0.0199807, "MEAN_MOTION_DDOT": 0}, "tle": {"line1": "1 66348U 25254A   25336.25003472 -.01998070  00000+0 -19637-1 0  9999", "line2": "2 66348  53.1592 327.0637 0001320  89.2868 107.7014 15.68535932  5236"}}, "geometry": {"type": "Point", "coordinates": [-42.994147156534936, -10.57588567967009]}}, {"type": "Feature", "properties": {"norad_id": 66349, "name": "STARLINK-35848", "group": "last-30-days", "lat": -9.055384618885313, "lon": -41.814316299428235, "alt_km": 370.38052603457163, "timestamp": "2025-12-02T15:49:05.947367+00:00", "meta": {"OBJECT_NAME": "STARLINK-35848", "OBJECT_ID": "2025-254B", "EPOCH": "2025-12-02T06:00:02.999808", "MEAN_MOTION": 15.68532, "ECCENTRICITY": 0.00013004, "INCLINATION": 53.1592, "RA_OF_ASC_NODE": 327.0593, "ARG_OF_PERICENTER": 90.7535, "MEAN_ANOMALY": 108.1542, "EPHEMERIS_TYPE": 0, "CLASSIFICATION_TYPE": "U", "NORAD_CAT_ID": 66349, "ELEMENT_SET_NO": 999, "REV_AT_EPOCH": 523, "BSTAR": -0.01959175, "MEAN_MOTION_DOT": -0.01993754, "MEAN_MOTION_DDOT": 0}, "tle": {"line1": "1 66349U 25254B   25336.25003472 -.01993754  00000+0 -19592-1 0  9994", "line2": "2 66349  53.1592 327.0593 0001300  90.7535 108.1542 15.68532000  5238"}}, "geometry": {"type": "Point", "coordinates": [-41.814316299428235, -9.055384618885313]}}, {"type": "Feature", "properties": {"norad_id": 66350, "name": "STARLINK-35829", "group": "last-30-days", "lat": -7.5319501191147715, "lon": -40.64503232131428, "alt_km": 370.2307681543889, "timestamp": "2025-12-02T15:49:05.947378+00:00", "meta": {"OBJECT_NAME": "STARLINK-35829", "OBJECT_ID": "2025-254C", "EPOCH": "2025-12-02T06:00:02.999808", "MEAN_MOTION": 15.68537572, "ECCENTRICITY": 0.0001366, "INCLINATION": 53.1588, "RA_OF_ASC_NODE": 327.0551, "ARG_OF_PERICENTER": 94.0957, "MEAN_ANOMALY": 106.7243, "EPHEMERIS_TYPE": 0, "CLASSIFICATION_TYPE": "U", "NORAD_CAT_ID": 66350, "ELEMENT_SET_NO": 999, "REV_AT_EPOCH": 523, "BSTAR": -0.019647999, "MEAN_MOTION_DOT": -0.01999251, "MEAN_MOTION_DDOT": 0}, "tle": {"line1": "1 66350U 25254C   25336.25003472 -.01999251  00000+0 -19648-1 0  9996", "line2": "2 66350  53.1588 327.0551 0001366  94.0957 106.7243 15.68537572  5237"}}, "geometry": {"type": "Point", "coordinates": [-40.64503232131428, -7.5319501191147715]}}, {"type": "Feature", "properties": {"norad_id": 66351, "name": "STARLINK-35828", "group": "last-30-days", "lat": -6.0038107512160055, "lon": -39.482190665213786, "alt_km": 370.01223982202737, "timestamp": "2025-12-02T15:49:05.947388+00:00", "meta": {"OBJECT_NAME": "STARLINK-35828", "OBJECT_ID": "2025-254D", "EPOCH": "2025-12-02T06:00:02.999808", "MEAN_MOTION": 15.68539521, "ECCENTRICITY": 0.00013089, "INCLINATION": 53.159, "RA_OF_ASC_NODE": 327.0513, "ARG_OF_PERICENTER": 93.2909, "MEAN_ANOMALY": 109.4471, "EPHEMERIS_TYPE": 0, "CLASSIFICATION_TYPE": "U", "NORAD_CAT_ID": 66351, "ELEMENT_SET_NO": 999, "REV_AT_EPOCH": 520, "BSTAR": -0.019700498, "MEAN_MOTION_DOT": -0.02004047, "MEAN_MOTION_DDOT": 0}, "tle": {"line1": "1 66351U 25254D   25336.25003472 -.02004047  00000+0 -19700-1 0  9997", "line2": "2 66351  53.1590 327.0513 0001308  93.2909 109.4471 15.68539521  5209"}}, "geometry": {"type": "Point", "coordinates": [-39.482190665213786, -6.0038107512160055]}}, {"type": "Feature", "properties": {"norad_id": 66352, "name": "STARLINK-35850", "group": "last-30-days", "lat": -4.474330962164891, "lon": -38.32746470447719, "alt_km": 369.79038161986136, "timestamp": "2025-12-02T15:49:05.947420+00:00", "meta": {"OBJECT_NAME": "STARLINK-35850", "OBJECT_ID": "2025-254E", "EPOCH": "2025-12-02T06:00:02.999808", "MEAN_MOTION": 15.68540744, "ECCENTRICITY": 0.00013155, "INCLINATION": 53.1591, "RA_OF_ASC_NODE": 327.0468, "ARG_OF_PERICENTER": 92.6997, "MEAN_ANOMALY": 111.953, "EPHEMERIS_TYPE": 0, "CLASSIFICATION_TYPE": "U", "NORAD_CAT_ID": 66352, "ELEMENT_SET_NO": 999, "REV_AT_EPOCH": 518, "BSTAR": -0.019699329, "MEAN_MOTION_DOT": -0.02004037, "MEAN_MOTION_DDOT": 0}, "tle": {"line1": "1 66352U 25254E   25336.25003472 -.02004037  00000+0 -19699-1 0  9994", "line2": "2 66352  53.1591 327.0468 0001315  92.6997 111.9530 15.68540744  5188"}}, "geometry": {"type": "Point", "coordinates": [-38.32746470447719, -4.474330962164891]}}]}